[{"OBJECT_NAME":"STARLINK-30610","OBJECT_ID":"2023-160H","EPOCH":"2026-03-09T08:25:37.409952","MEAN_MOTION":15.2673357,"ECCENTRICITY":0.0001438,"INCLINATION":43.0023,"RA_OF_ASC_NODE":79.8267,"ARG_OF_PERICENTER":246.9548,"MEAN_ANOMALY":113.1152,"EPHEMERIS_TYPE":0,"CLASSIFICATION_TYPE":"U","NORAD_CAT_ID":58082,"ELEMENT_SET_NO":999,"REV_AT_EPOCH":13289,"BSTAR":-7.0759291e-5,"MEAN_MOTION_DOT":-2.157e-5,"MEAN_MOTION_DDOT":0},{"OBJECT_NAME":"CZ-6A DEB","OBJECT_ID":"2024-140AB","EPOCH":"2026-03-09T12:39:40.872096","MEAN_MOTION":14.79496195,"ECCENTRICITY":0.02124268,"INCLINATION":89.014,"RA_OF_ASC_NODE":280.9531,"ARG_OF_PERICENTER":168.3647,"MEAN_ANOMALY":192.2602,"EPHEMERIS_TYPE":0,"CLASSIFICATION_TYPE":"U","NORAD_CAT_ID":60626,"ELEMENT_SET_NO":999,"REV_AT_EPOCH":8539,"BSTAR":0.00037700721,"MEAN_MOTION_DOT":4.17e-5,"MEAN_MOTION_DDOT":0}]
